UNKNOWN                 
1 82381U          26083.60352040  .00021344  00000+0  24100-2 0  9993
2 82381  98.3903 318.5530 0007069 164.6603 195.4827 14.86531285525910
UNKNOWN                 
1 82402U          26084.34502579  .00005847  00000+0  40931-3 0  9994
2 82402  86.6575 111.2238 0009068 131.0698 229.1322 15.05037903469894
UNKNOWN                 
1 82432U          26078.49263034  .00001338  00000+0  28536-3 0  9994
2 82432  74.0066 155.9848 0057142 296.0394  63.4894 14.58986549497010
UNKNOWN                 
1 82448U          26081.18867144  .00008109  00000+0  56518-3 0  9997
2 82448  85.8749 146.1547 0006405 259.3492 100.7021 15.05268475451998
UNKNOWN                 
1 82453U          26083.59603111  .00000019  00000+0  47728-3 0  9997
2 82453 102.1950  44.9577 0094189  19.4702 340.9921 12.39712293558681
UNKNOWN                 
1 82484U          26083.50500538  .00000185  00000+0  32376-3 0  9998
2 82484  99.3485 104.8753 0043721 296.5357  63.1303 13.55840763604422
UNKNOWN                 
1 82494U          26084.24354157  .00015583  00000+0  15918-2 0  9995
2 82494  74.0053 176.9097 0008739 299.8339  60.1973 14.90575582100213
UNKNOWN                 
1 82500U          26081.93759086  .00003794  00000+0  17015-2 0  9997
2 82500  70.9651 151.6425 0120191 320.7900  38.4562 14.19309384633163
UNKNOWN                 
1 82524U          26083.99976351  .00002798  00000+0  88011-3 0  9995
2 82524  73.2828 345.4360 0131443 110.3856 267.7525 14.36129792591719
UNKNOWN                 
1 82529U          26079.71592890  .00000416  00000+0  70169-3 0  9997
2 82529  99.7774 164.9843 0237659   1.9224 150.6955 13.41206174602879
UNKNOWN                 
1 82560U          26083.12855046  .00001154  00000+0  96063-3 0  9998
2 82560  99.9969  38.2464 0012255  39.1891 332.5280 13.90952707625961
UNKNOWN                 
1 82597U          26080.75179550  .00001698  00000+0  57960-3 0  9999
2 82597  66.7684 247.1812 0097649 238.4871 120.6664 14.36173817643192
