CCSDS_OMM_VERS = 2.0
CREATION_DATE  = 
ORIGINATOR     = 

OBJECT_NAME    = UNKNOWN
OBJECT_ID      = 
CENTER_NAME    = EARTH
REF_FRAME      = TEME
TIME_SYSTEM    = UTC
MEAN_ELEMENT_THEORY = SGP/SGP4

EPOCH          = 2026-03-24T14:29:04.162560
MEAN_MOTION    = 14.86531285
ECCENTRICITY   = .0007069
INCLINATION    = 98.3903
RA_OF_ASC_NODE = 318.5530
ARG_OF_PERICENTER = 164.6603
MEAN_ANOMALY   = 195.4827

EPHEMERIS_TYPE = 0
CLASSIFICATION_TYPE = U
NORAD_CAT_ID   = 82381
ELEMENT_SET_NO = 999
REV_AT_EPOCH   = 52591
BSTAR          = .241E-2
MEAN_MOTION_DOT = .21344E-3
MEAN_MOTION_DDOT = 0

CCSDS_OMM_VERS = 2.0
CREATION_DATE  = 
ORIGINATOR     = 

OBJECT_NAME    = UNKNOWN
OBJECT_ID      = 
CENTER_NAME    = EARTH
REF_FRAME      = TEME
TIME_SYSTEM    = UTC
MEAN_ELEMENT_THEORY = SGP/SGP4

EPOCH          = 2026-03-25T08:16:50.228256
MEAN_MOTION    = 15.05037903
ECCENTRICITY   = .0009068
INCLINATION    = 86.6575
RA_OF_ASC_NODE = 111.2238
ARG_OF_PERICENTER = 131.0698
MEAN_ANOMALY   = 229.1322

EPHEMERIS_TYPE = 0
CLASSIFICATION_TYPE = U
NORAD_CAT_ID   = 82402
ELEMENT_SET_NO = 999
REV_AT_EPOCH   = 46989
BSTAR          = .40931E-3
MEAN_MOTION_DOT = .5847E-4
MEAN_MOTION_DDOT = 0

CCSDS_OMM_VERS = 2.0
CREATION_DATE  = 
ORIGINATOR     = 

OBJECT_NAME    = UNKNOWN
OBJECT_ID      = 
CENTER_NAME    = EARTH
REF_FRAME      = TEME
TIME_SYSTEM    = UTC
MEAN_ELEMENT_THEORY = SGP/SGP4

EPOCH          = 2026-03-19T11:49:23.261376
MEAN_MOTION    = 14.58986549
ECCENTRICITY   = .0057142
INCLINATION    = 74.0066
RA_OF_ASC_NODE = 155.9848
ARG_OF_PERICENTER = 296.0394
MEAN_ANOMALY   = 63.4894

EPHEMERIS_TYPE = 0
CLASSIFICATION_TYPE = U
NORAD_CAT_ID   = 82432
ELEMENT_SET_NO = 999
REV_AT_EPOCH   = 49701
BSTAR          = .28536E-3
MEAN_MOTION_DOT = .1338E-4
MEAN_MOTION_DDOT = 0

CCSDS_OMM_VERS = 2.0
CREATION_DATE  = 
ORIGINATOR     = 

OBJECT_NAME    = UNKNOWN
OBJECT_ID      = 
CENTER_NAME    = EARTH
REF_FRAME      = TEME
TIME_SYSTEM    = UTC
MEAN_ELEMENT_THEORY = SGP/SGP4

EPOCH          = 2026-03-22T04:31:41.212416
MEAN_MOTION    = 15.05268475
ECCENTRICITY   = .0006405
INCLINATION    = 85.8749
RA_OF_ASC_NODE = 146.1547
ARG_OF_PERICENTER = 259.3492
MEAN_ANOMALY   = 100.7021

EPHEMERIS_TYPE = 0
CLASSIFICATION_TYPE = U
NORAD_CAT_ID   = 82448
ELEMENT_SET_NO = 999
REV_AT_EPOCH   = 45199
BSTAR          = .56518E-3
MEAN_MOTION_DOT = .8109E-4
MEAN_MOTION_DDOT = 0

CCSDS_OMM_VERS = 2.0
CREATION_DATE  = 
ORIGINATOR     = 

OBJECT_NAME    = UNKNOWN
OBJECT_ID      = 
CENTER_NAME    = EARTH
REF_FRAME      = TEME
TIME_SYSTEM    = UTC
MEAN_ELEMENT_THEORY = SGP/SGP4

EPOCH          = 2026-03-24T14:18:17.087904
MEAN_MOTION    = 12.39712293
ECCENTRICITY   = .0094189
INCLINATION    = 102.1950
RA_OF_ASC_NODE = 44.9577
ARG_OF_PERICENTER = 19.4702
MEAN_ANOMALY   = 340.9921

EPHEMERIS_TYPE = 0
CLASSIFICATION_TYPE = U
NORAD_CAT_ID   = 82453
ELEMENT_SET_NO = 999
REV_AT_EPOCH   = 55868
BSTAR          = .47728E-3
MEAN_MOTION_DOT = .19E-6
MEAN_MOTION_DDOT = 0

CCSDS_OMM_VERS = 2.0
CREATION_DATE  = 
ORIGINATOR     = 

OBJECT_NAME    = UNKNOWN
OBJECT_ID      = 
CENTER_NAME    = EARTH
REF_FRAME      = TEME
TIME_SYSTEM    = UTC
MEAN_ELEMENT_THEORY = SGP/SGP4

EPOCH          = 2026-03-24T12:07:12.464832
MEAN_MOTION    = 13.55840763
ECCENTRICITY   = .0043721
INCLINATION    = 99.3485
RA_OF_ASC_NODE = 104.8753
ARG_OF_PERICENTER = 296.5357
MEAN_ANOMALY   = 63.1303

EPHEMERIS_TYPE = 0
CLASSIFICATION_TYPE = U
NORAD_CAT_ID   = 82484
ELEMENT_SET_NO = 999
REV_AT_EPOCH   = 60442
BSTAR          = .32376E-3
MEAN_MOTION_DOT = .185E-5
MEAN_MOTION_DDOT = 0

CCSDS_OMM_VERS = 2.0
CREATION_DATE  = 
ORIGINATOR     = 

OBJECT_NAME    = UNKNOWN
OBJECT_ID      = 
CENTER_NAME    = EARTH
REF_FRAME      = TEME
TIME_SYSTEM    = UTC
MEAN_ELEMENT_THEORY = SGP/SGP4

EPOCH          = 2026-03-25T05:50:41.991648
MEAN_MOTION    = 14.90575582
ECCENTRICITY   = .0008739
INCLINATION    = 74.0053
RA_OF_ASC_NODE = 176.9097
ARG_OF_PERICENTER = 299.8339
MEAN_ANOMALY   = 60.1973

EPHEMERIS_TYPE = 0
CLASSIFICATION_TYPE = U
NORAD_CAT_ID   = 82494
ELEMENT_SET_NO = 999
REV_AT_EPOCH   = 10021
BSTAR          = .15918E-2
MEAN_MOTION_DOT = .15583E-3
MEAN_MOTION_DDOT = 0

CCSDS_OMM_VERS = 2.0
CREATION_DATE  = 
ORIGINATOR     = 

OBJECT_NAME    = UNKNOWN
OBJECT_ID      = 
CENTER_NAME    = EARTH
REF_FRAME      = TEME
TIME_SYSTEM    = UTC
MEAN_ELEMENT_THEORY = SGP/SGP4

EPOCH          = 2026-03-22T22:30:07.850304
MEAN_MOTION    = 14.19309384
ECCENTRICITY   = .0120191
INCLINATION    = 70.9651
RA_OF_ASC_NODE = 151.6425
ARG_OF_PERICENTER = 320.7900
MEAN_ANOMALY   = 38.4562

EPHEMERIS_TYPE = 0
CLASSIFICATION_TYPE = U
NORAD_CAT_ID   = 82500
ELEMENT_SET_NO = 999
REV_AT_EPOCH   = 63316
BSTAR          = .17015E-2
MEAN_MOTION_DOT = .3794E-4
MEAN_MOTION_DDOT = 0

CCSDS_OMM_VERS = 2.0
CREATION_DATE  = 
ORIGINATOR     = 

OBJECT_NAME    = UNKNOWN
OBJECT_ID      = 
CENTER_NAME    = EARTH
REF_FRAME      = TEME
TIME_SYSTEM    = UTC
MEAN_ELEMENT_THEORY = SGP/SGP4

EPOCH          = 2026-03-24T23:59:39.567264
MEAN_MOTION    = 14.36129792
ECCENTRICITY   = .0131443
INCLINATION    = 73.2828
RA_OF_ASC_NODE = 345.4360
ARG_OF_PERICENTER = 110.3856
MEAN_ANOMALY   = 267.7525

EPHEMERIS_TYPE = 0
CLASSIFICATION_TYPE = U
NORAD_CAT_ID   = 82524
ELEMENT_SET_NO = 999
REV_AT_EPOCH   = 59171
BSTAR          = .88011E-3
MEAN_MOTION_DOT = .2798E-4
MEAN_MOTION_DDOT = 0

CCSDS_OMM_VERS = 2.0
CREATION_DATE  = 
ORIGINATOR     = 

OBJECT_NAME    = UNKNOWN
OBJECT_ID      = 
CENTER_NAME    = EARTH
REF_FRAME      = TEME
TIME_SYSTEM    = UTC
MEAN_ELEMENT_THEORY = SGP/SGP4

EPOCH          = 2026-03-20T17:10:56.256960
MEAN_MOTION    = 13.41206174
ECCENTRICITY   = .0237659
INCLINATION    = 99.7774
RA_OF_ASC_NODE = 164.9843
ARG_OF_PERICENTER = 1.9224
MEAN_ANOMALY   = 150.6955

EPHEMERIS_TYPE = 0
CLASSIFICATION_TYPE = U
NORAD_CAT_ID   = 82529
ELEMENT_SET_NO = 999
REV_AT_EPOCH   = 60287
BSTAR          = .70169E-3
MEAN_MOTION_DOT = .416E-5
MEAN_MOTION_DDOT = 0

CCSDS_OMM_VERS = 2.0
CREATION_DATE  = 
ORIGINATOR     = 

OBJECT_NAME    = UNKNOWN
OBJECT_ID      = 
CENTER_NAME    = EARTH
REF_FRAME      = TEME
TIME_SYSTEM    = UTC
MEAN_ELEMENT_THEORY = SGP/SGP4

EPOCH          = 2026-03-24T03:05:06.759744
MEAN_MOTION    = 13.90952707
ECCENTRICITY   = .0012255
INCLINATION    = 99.9969
RA_OF_ASC_NODE = 38.2464
ARG_OF_PERICENTER = 39.1891
MEAN_ANOMALY   = 332.5280

EPHEMERIS_TYPE = 0
CLASSIFICATION_TYPE = U
NORAD_CAT_ID   = 82560
ELEMENT_SET_NO = 999
REV_AT_EPOCH   = 62596
BSTAR          = .96063E-3
MEAN_MOTION_DOT = .1154E-4
MEAN_MOTION_DDOT = 0

CCSDS_OMM_VERS = 2.0
CREATION_DATE  = 
ORIGINATOR     = 

OBJECT_NAME    = UNKNOWN
OBJECT_ID      = 
CENTER_NAME    = EARTH
REF_FRAME      = TEME
TIME_SYSTEM    = UTC
MEAN_ELEMENT_THEORY = SGP/SGP4

EPOCH          = 2026-03-21T18:02:35.131200
MEAN_MOTION    = 14.36173817
ECCENTRICITY   = .0097649
INCLINATION    = 66.7684
RA_OF_ASC_NODE = 247.1812
ARG_OF_PERICENTER = 238.4871
MEAN_ANOMALY   = 120.6664

EPHEMERIS_TYPE = 0
CLASSIFICATION_TYPE = U
NORAD_CAT_ID   = 82597
ELEMENT_SET_NO = 999
REV_AT_EPOCH   = 64319
BSTAR          = .5796E-3
MEAN_MOTION_DOT = .1698E-4
MEAN_MOTION_DDOT = 0

